{
  "type": "FeatureCollection",
  "features": [
    {
      "type": "Feature",
      "properties": {
        "norad_id": 60182,
        "name": "ALOS-4 (DAICHI-4)",
        "group": "resource",
        "lat": 63.36182708108771,
        "lon": 76.96926919989528,
        "alt_km": 623.8903511817307,
        "timestamp": "2025-12-24T09:46:30.653404+00:00",
        "meta_object_name": "ALOS-4 (DAICHI-4)",
        "meta_object_id": "2024-123A",
        "meta_epoch": "2025-12-20T19:27:23.065632",
        "meta_mean_motion": 14.79476706,
        "meta_eccentricity": 0.00013885,
        "meta_inclination": 97.9224,
        "meta_ra_of_asc_node": 89.5428,
        "meta_arg_of_pericenter": 101.3368,
        "meta_mean_anomaly": 258.8,
        "meta_ephemeris_type": 0,
        "meta_classification_type": "U",
        "meta_norad_cat_id": 60182,
        "meta_element_set_no": 999,
        "meta_rev_at_epoch": 7950,
        "meta_bstar": 0.00018386978,
        "meta_mean_motion_dot": 1.322e-05,
        "meta_mean_motion_ddot": 0,
        "tle_line1": "1 60182U 24123A   25354.81068363  .00001322  00000+0  18387-3 0  9990",
        "tle_line2": "2 60182  97.9224  89.5428 0001388 101.3368 258.8000 14.79476706 79505"
      },
      "geometry": {
        "type": "Point",
        "coordinates": [
          76.96926919989528,
          63.36182708108771
        ]
      }
    },
    {
      "type": "Feature",
      "properties": {
        "norad_id": 60452,
        "name": "LEGION 3",
        "group": "resource",
        "lat": -42.6634365546622,
        "lon": -179.67352142060432,
        "alt_km": 512.145902606544,
        "timestamp": "2025-12-24T09:46:30.653415+00:00",
        "meta_object_name": "LEGION 3",
        "meta_object_id": "2024-146A",
        "meta_epoch": "2025-12-24T02:11:23.440992",
        "meta_mean_motion": 15.15871125,
        "meta_eccentricity": 0.0015717,
        "meta_inclination": 45.0003,
        "meta_ra_of_asc_node": 249.2752,
        "meta_arg_of_pericenter": 259.2178,
        "meta_mean_anomaly": 100.6932,
        "meta_ephemeris_type": 0,
        "meta_classification_type": "U",
        "meta_norad_cat_id": 60452,
        "meta_element_set_no": 999,
        "meta_rev_at_epoch": 7545,
        "meta_bstar": 0.00027461,
        "meta_mean_motion_dot": 5.097e-05,
        "meta_mean_motion_ddot": 0,
        "tle_line1": "1 60452U 24146A   25358.09124353  .00005097  00000+0  27461-3 0  9997",
        "tle_line2": "2 60452  45.0003 249.2752 0015717 259.2178 100.6932 15.15871125 75455"
      },
      "geometry": {
        "type": "Point",
        "coordinates": [
          -179.67352142060432,
          -42.6634365546622
        ]
      }
    },
    {
      "type": "Feature",
      "properties": {
        "norad_id": 60453,
        "name": "LEGION 4",
        "group": "resource",
        "lat": -42.924700211105325,
        "lon": -88.98174699942396,
        "alt_km": 521.7327148670929,
        "timestamp": "2025-12-24T09:46:30.653425+00:00",
        "meta_object_name": "LEGION 4",
        "meta_object_id": "2024-146B",
        "meta_epoch": "2025-12-24T02:11:38.408928",
        "meta_mean_motion": 15.15940419,
        "meta_eccentricity": 0.0008262,
        "meta_inclination": 45.0394,
        "meta_ra_of_asc_node": 341.0576,
        "meta_arg_of_pericenter": 13.9832,
        "meta_mean_anomaly": 346.1274,
        "meta_ephemeris_type": 0,
        "meta_classification_type": "U",
        "meta_norad_cat_id": 60453,
        "meta_element_set_no": 999,
        "meta_rev_at_epoch": 7430,
        "meta_bstar": 0.00033127,
        "meta_mean_motion_dot": 6.204e-05,
        "meta_mean_motion_ddot": 0,
        "tle_line1": "1 60453U 24146B   25358.09141677  .00006204  00000+0  33127-3 0  9993",
        "tle_line2": "2 60453  45.0394 341.0576 0008262  13.9832 346.1274 15.15940419 74305"
      },
      "geometry": {
        "type": "Point",
        "coordinates": [
          -88.98174699942396,
          -42.924700211105325
        ]
      }
    },
    {
      "type": "Feature",
      "properties": {
        "norad_id": 60989,
        "name": "SENTINEL-2C",
        "group": "resource",
        "lat": -51.10585598300435,
        "lon": 81.4899284143065,
        "alt_km": 796.7981305947424,
        "timestamp": "2025-12-24T09:46:30.653436+00:00",
        "meta_object_name": "SENTINEL-2C",
        "meta_object_id": "2024-157A",
        "meta_epoch": "2025-12-24T03:18:14.918688",
        "meta_mean_motion": 14.30816828,
        "meta_eccentricity": 0.000138,
        "meta_inclination": 98.5667,
        "meta_ra_of_asc_node": 70.4552,
        "meta_arg_of_pericenter": 103.8913,
        "meta_mean_anomaly": 256.2423,
        "meta_ephemeris_type": 0,
        "meta_classification_type": "U",
        "meta_norad_cat_id": 60989,
        "meta_element_set_no": 999,
        "meta_rev_at_epoch": 6795,
        "meta_bstar": 7.3444e-05,
        "meta_mean_motion_dot": 1.49e-06,
        "meta_mean_motion_ddot": 0,
        "tle_line1": "1 60989U 24157A   25358.13767267  .00000149  00000+0  73444-4 0  9992",
        "tle_line2": "2 60989  98.5667  70.4552 0001380 103.8913 256.2423 14.30816828 67957"
      },
      "geometry": {
        "type": "Point",
        "coordinates": [
          81.4899284143065,
          -51.10585598300435
        ]
      }
    },
    {
      "type": "Feature",
      "properties": {
        "norad_id": 61735,
        "name": "IONOSFERA-M 1",
        "group": "resource",
        "lat": -53.934647436409,
        "lon": 35.970753164836346,
        "alt_km": 823.3392746746995,
        "timestamp": "2025-12-24T09:46:30.653446+00:00",
        "meta_object_name": "IONOSFERA-M 1",
        "meta_object_id": "2024-199A",
        "meta_epoch": "2025-12-24T05:17:56.891040",
        "meta_mean_motion": 14.22716476,
        "meta_eccentricity": 3.96e-05,
        "meta_inclination": 98.7403,
        "meta_ra_of_asc_node": 227.9805,
        "meta_arg_of_pericenter": 6.8026,
        "meta_mean_anomaly": 353.3157,
        "meta_ephemeris_type": 0,
        "meta_classification_type": "U",
        "meta_norad_cat_id": 61735,
        "meta_element_set_no": 999,
        "meta_rev_at_epoch": 10282,
        "meta_bstar": 4.7345e-05,
        "meta_mean_motion_dot": 6.2e-07,
        "meta_mean_motion_ddot": 0,
        "tle_line1": "1 61735U 24199A   25358.22079735  .00000062  00000+0  47345-4 0  9999",
        "tle_line2": "2 61735  98.7403 227.9805 0000396   6.8026 353.3157 14.22716476102828"
      },
      "geometry": {
        "type": "Point",
        "coordinates": [
          35.970753164836346,
          -53.934647436409
        ]
      }
    },
    {
      "type": "Feature",
      "properties": {
        "norad_id": 61736,
        "name": "IONOSFERA-M 2",
        "group": "resource",
        "lat": 56.45418760279008,
        "lon": -145.3371574703759,
        "alt_km": 809.6784441406471,
        "timestamp": "2025-12-24T09:46:30.653457+00:00",
        "meta_object_name": "IONOSFERA-M 2",
        "meta_object_id": "2024-199B",
        "meta_epoch": "2025-12-24T04:26:32.609760",
        "meta_mean_motion": 14.22718667,
        "meta_eccentricity": 0.000185,
        "meta_inclination": 98.7395,
        "meta_ra_of_asc_node": 227.8574,
        "meta_arg_of_pericenter": 95.845,
        "meta_mean_anomaly": 264.2938,
        "meta_ephemeris_type": 0,
        "meta_classification_type": "U",
        "meta_norad_cat_id": 61736,
        "meta_element_set_no": 999,
        "meta_rev_at_epoch": 10594,
        "meta_bstar": 4.4818e-05,
        "meta_mean_motion_dot": 5.6e-07,
        "meta_mean_motion_ddot": 0,
        "tle_line1": "1 61736U 24199B   25358.18509965  .00000056  00000+0  44818-4 0  9993",
        "tle_line2": "2 61736  98.7395 227.8574 0001850  95.8450 264.2938 14.22718667105943"
      },
      "geometry": {
        "type": "Point",
        "coordinates": [
          -145.3371574703759,
          56.45418760279008
        ]
      }
    },
    {
      "type": "Feature",
      "properties": {
        "norad_id": 63772,
        "name": "BIOMASS",
        "group": "resource",
        "lat": -30.64154488502948,
        "lon": -171.93297445603224,
        "alt_km": 675.1803532949561,
        "timestamp": "2025-12-24T09:46:30.653467+00:00",
        "meta_object_name": "BIOMASS",
        "meta_object_id": "2025-090A",
        "meta_epoch": "2025-12-24T01:44:03.175008",
        "meta_mean_motion": 14.67540214,
        "meta_eccentricity": 8.57e-05,
        "meta_inclination": 98.0687,
        "meta_ra_of_asc_node": 182.9166,
        "meta_arg_of_pericenter": 84.4588,
        "meta_mean_anomaly": 275.6714,
        "meta_ephemeris_type": 0,
        "meta_classification_type": "U",
        "meta_norad_cat_id": 63772,
        "meta_element_set_no": 999,
        "meta_rev_at_epoch": 3500,
        "meta_bstar": 0.00021783,
        "meta_mean_motion_dot": 1.187e-05,
        "meta_mean_motion_ddot": 0,
        "tle_line1": "1 63772U 25090A   25358.07225897  .00001187  00000+0  21783-3 0  9994",
        "tle_line2": "2 63772  98.0687 182.9166 0000857  84.4588 275.6714 14.67540214 35009"
      },
      "geometry": {
        "type": "Point",
        "coordinates": [
          -171.93297445603224,
          -30.64154488502948
        ]
      }
    }
  ]
}